0 COSMOS 2390 DEB
1 27533U 02036D   13266.00000000  .00000050  00000-0  28088-3 0  5977
2 27533 082.4893 011.7101 0021510 341.8422 053.4176 12.44782912500157
0 COSMOS 2390 DEB
1 27533U 02036D   13269.28690913  .00000015  00000-0  33310-4 0  5996
2 27533 082.4878 009.6511 0020933 333.8725 023.5706 12.44783558500554
